[{"initial":"A","list":[{"zip":"0837","name":"阿坝","id":0,"code":"5132"},{"zip":"0997","name":"阿克苏","id":0},{"zip":"0483","name":"阿拉善盟","id":0},{"zip":"0906","name":"阿勒泰","id":0},{"zip":"0897","name":"阿里","id":0,"code":"5425"},{"zip":"0915","name":"安康","id":0,"code":"6109"},{"zip":"0556","name":"安庆","id":0,"code":"3408"},{"zip":"0412","name":"鞍山","id":0,"code":"2103"},{"zip":"0853","name":"安顺","id":0,"code":"5204"},{"zip":"0372","name":"安阳","id":0,"code":"4105"},{"zip":"0451","name":"阿城","id":0},{"zip":"0796","name":"安福","id":0},{"zip":"0572","name":"安吉","id":0},{"zip":"0871","name":"安宁","id":0},{"zip":"0536","name":"安丘","id":0},{"zip":"0595","name":"安溪","id":0},{"zip":"0791","name":"安义","id":0},{"zip":"0797","name":"安远","id":0}]},{"initial":"B","list":[{"zip":"010","name":"北京","id":1,"code":"1101"},{"zip":"0436","name":"白城","id":1,"code":"2208"},{"zip":"0776","name":"百色","id":1,"code":"4510"},{"zip":"0439","name":"白山","id":1,"code":"2206"},{"zip":"0943","name":"白银","id":1,"code":"6204"},{"zip":"0552","name":"蚌埠","id":1,"code":"3403"},{"zip":"0312","name":"保定","id":1,"code":"1306"},{"zip":"0917","name":"宝鸡","id":1,"code":"6103"},{"zip":"0875","name":"保山","id":1,"code":"5305"},{"zip":"0472","name":"包头","id":1,"code":"1502"},{"zip":"0478","name":"巴彦淖尔","id":1},{"zip":"0996","name":"巴音郭楞","id":1},{"zip":"0827","name":"巴中","id":1,"code":"5119"},{"zip":"0779","name":"北海","id":1,"code":"4505"},{"zip":"0414","name":"本溪","id":1,"code":"2105"},{"zip":"0857","name":"毕节","id":1,"code":"5205"},{"zip":"0543","name":"滨州","id":1,"code":"3716"},{"zip":"0909","name":"博尔塔拉","id":1},{"zip":"0558","name":"亳州","id":1,"code":"3416"},{"zip":"0514","name":"宝应","id":1},{"zip":"0451","name":"巴彦","id":1,"code":"1508"},{"zip":"0515","name":"滨海","id":1},{"zip":"0451","name":"宾县","id":1},{"zip":"0771","name":"宾阳","id":1},{"zip":"023","name":"璧山","id":1},{"zip":"0391","name":"博爱","id":1},{"zip":"0752","name":"博罗","id":1},{"zip":"0543","name":"博兴","id":1}]},{"initial":"C","list":[{"zip":"023","name":"重庆","id":2,"code":"5001"},{"zip":"0431","name":"长春","id":2,"code":"2201"},{"zip":"0731","name":"长沙","id":2,"code":"4301"},{"zip":"0519","name":"常州","id":2,"code":"3204"},{"zip":"028","name":"成都","id":2,"code":"5101"},{"zip":"0317","name":"沧州","id":2,"code":"1309"},{"zip":"0736","name":"常德","id":2,"code":"4307"},{"zip":"0895","name":"昌都","id":2,"code":"5403"},{"zip":"0997","name":"昌吉","id":2,"code":"6523"},{"zip":"0355","name":"长治","id":2,"code":"1404"},{"zip":"0565","name":"巢湖","id":2},{"zip":"0421","name":"朝阳","id":2,"code":"2113"},{"zip":"0768","name":"潮州","id":2,"code":"4451"},{"zip":"0314","name":"承德","id":2,"code":"1308"},{"zip":"0735","name":"郴州","id":2,"code":"4310"},{"zip":"0476","name":"赤峰","id":2,"code":"1504"},{"zip":"0566","name":"池州","id":2,"code":"3417"},{"zip":"0771","name":"崇左","id":2,"code":"4514"},{"zip":"0875","name":"楚雄","id":2,"code":"5323"},{"zip":"0550","name":"滁州","id":2,"code":"3411"},{"zip":"0577","name":"苍南","id":2},{"zip":"0539","name":"苍山","id":2},{"zip":"0530","name":"曹县","id":2},{"zip":"0535","name":"长岛","id":2},{"zip":"0551","name":"长丰","id":2},{"zip":"0411","name":"长海","id":2},{"zip":"0591","name":"长乐","id":2},{"zip":"0536","name":"昌乐","id":2},{"zip":"0570","name":"常山","id":2},{"zip":"0512","name":"常熟","id":2},{"zip":"0596","name":"长泰","id":2},{"zip":"0597","name":"长汀","id":2},{"zip":"0572","name":"长兴","id":2},{"zip":"0536","name":"昌邑","id":2},{"zip":"0768","name":"潮安","id":2},{"zip":"0871","name":"呈贡","id":2},{"zip":"023","name":"城口","id":2},{"zip":"0530","name":"成武","id":2},{"zip":"0635","name":"茌平","id":2},{"zip":"0794","name":"崇仁","id":2},{"zip":"0797","name":"崇义","id":2},{"zip":"028","name":"崇州","id":2},{"zip":"0571","name":"淳安","id":2},{"zip":"0574","name":"慈溪","id":2},{"zip":"020","name":"从化","id":2},{"zip":"0556","name":"枞阳","id":2}]},{"initial":"D","list":[{"zip":"0411","name":"大连","id":3,"code":"2102"},{"zip":"0769","name":"东莞","id":3,"code":"4419"},{"zip":"0872","name":"大理","id":3,"code":"5329"},{"zip":"0415","name":"丹东","id":3,"code":"2106"},{"zip":"0459","name":"大庆","id":3,"code":"2306"},{"zip":"0352","name":"大同","id":3,"code":"1402"},{"zip":"0457","name":"大兴安岭","id":3},{"zip":"0818","name":"达州","id":3,"code":"5117"},{"zip":"0692","name":"德宏","id":3,"code":"5331"},{"zip":"0838","name":"德阳","id":3,"code":"5106"},{"zip":"0534","name":"德州","id":3,"code":"3714"},{"zip":"0932","name":"定西","id":3,"code":"6211"},{"zip":"0887","name":"迪庆","id":3,"code":"5334"},{"zip":"0546","name":"东营","id":3,"code":"3705"},{"zip":"0515","name":"大丰","id":3},{"zip":"0580","name":"岱山","id":3},{"zip":"0557","name":"砀山","id":3},{"zip":"0555","name":"当涂","id":3},{"zip":"0530","name":"单县","id":3},{"zip":"0511","name":"丹阳","id":3},{"zip":"0753","name":"大埔","id":3},{"zip":"0598","name":"大田","id":3},{"zip":"028","name":"大邑","id":3},{"zip":"0797","name":"大余","id":3},{"zip":"023","name":"大足","id":3},{"zip":"0792","name":"德安","id":3},{"zip":"0595","name":"德化","id":3},{"zip":"0431","name":"德惠","id":3},{"zip":"0371","name":"登封","id":3},{"zip":"0572","name":"德清","id":3},{"zip":"0758","name":"德庆","id":3},{"zip":"0793","name":"德兴","id":3},{"zip":"0668","name":"电白","id":3},{"zip":"023","name":"垫江","id":3},{"zip":"0797","name":"定南","id":3},{"zip":"0530","name":"定陶","id":3},{"zip":"0550","name":"定远","id":3},{"zip":"0635","name":"东阿","id":3},{"zip":"0518","name":"东海","id":3},{"zip":"0530","name":"东明","id":3},{"zip":"0538","name":"东平","id":3},{"zip":"0596","name":"东山","id":3},{"zip":"0515","name":"东台","id":3},{"zip":"0577","name":"洞头","id":3},{"zip":"0794","name":"东乡","id":3},{"zip":"0579","name":"东阳","id":3},{"zip":"0762","name":"东源","id":3},{"zip":"0566","name":"东至","id":3},{"zip":"0792","name":"都昌","id":3},{"zip":"028","name":"都江堰","id":3}]},{"initial":"E","list":[{"zip":"0477","name":"鄂尔多斯","id":4},{"zip":"0718","name":"恩施","id":4,"code":"4228"},{"zip":"0711","name":"鄂州","id":4,"code":"4207"},{"zip":"0750","name":"恩平","id":4}]},{"initial":"F","list":[{"zip":"0757","name":"佛山","id":5,"code":"4406"},{"zip":"0591","name":"福州","id":5,"code":"3501"},{"zip":"0770","name":"防城港","id":5},{"zip":"0413","name":"抚顺","id":5,"code":"2104"},{"zip":"0418","name":"阜新","id":5,"code":"2109"},{"zip":"0558","name":"阜阳","id":5,"code":"3412"},{"zip":"0794","name":"抚州","id":5,"code":"3610"},{"zip":"024","name":"法库","id":5},{"zip":"0553","name":"繁昌","id":5},{"zip":"0451","name":"方正","id":5},{"zip":"0538","name":"肥城","id":5},{"zip":"0551","name":"肥东","id":5},{"zip":"0551","name":"肥西","id":5},{"zip":"0539","name":"费县","id":5},{"zip":"0795","name":"丰城","id":5},{"zip":"023","name":"丰都","id":5},{"zip":"0574","name":"奉化","id":5},{"zip":"023","name":"奉节","id":5},{"zip":"0758","name":"封开","id":5},{"zip":"0753","name":"丰顺","id":5},{"zip":"0554","name":"凤台","id":5},{"zip":"0516","name":"丰县","id":5},{"zip":"0795","name":"奉新","id":5},{"zip":"0550","name":"凤阳","id":5},{"zip":"0790","name":"分宜","id":5},{"zip":"0763","name":"佛冈","id":5},{"zip":"0593","name":"福安","id":5},{"zip":"0593","name":"福鼎","id":5},{"zip":"0798","name":"浮梁","id":5},{"zip":"0871","name":"富民","id":5},{"zip":"0558","name":"阜南","id":5},{"zip":"0515","name":"阜宁","id":5},{"zip":"0591","name":"福清","id":5},{"zip":"0571","name":"富阳","id":5}]},{"initial":"G","list":[{"zip":"020","name":"广州","id":6,"code":"4401"},{"zip":"0851","name":"贵阳","id":6,"code":"5201"},{"zip":"0941","name":"甘南","id":6,"code":"6230"},{"zip":"0797","name":"赣州","id":6,"code":"3607"},{"zip":"0836","name":"甘孜","id":6,"code":"5133"},{"zip":"0826","name":"广安","id":6,"code":"5116"},{"zip":"0839","name":"广元","id":6,"code":"5108"},{"zip":"0775","name":"贵港","id":6,"code":"4508"},{"zip":"0773","name":"桂林","id":6,"code":"4503"},{"zip":"0975","name":"果洛","id":6,"code":"6326"},{"zip":"0954","name":"固原","id":6,"code":"6404"},{"zip":"0797","name":"赣县","id":6},{"zip":"0518","name":"赣榆","id":6},{"zip":"0795","name":"高安","id":6},{"zip":"0311","name":"藁城","id":6},{"zip":"025","name":"高淳","id":6},{"zip":"0931","name":"皋兰","id":6},{"zip":"029","name":"高陵","id":6},{"zip":"0536","name":"高密","id":6},{"zip":"0533","name":"高青","id":6},{"zip":"0635","name":"高唐","id":6},{"zip":"0758","name":"高要","id":6},{"zip":"0311","name":"高邑","id":6},{"zip":"0514","name":"高邮","id":6},{"zip":"0668","name":"高州","id":6},{"zip":"0371","name":"巩义","id":6},{"zip":"0794","name":"广昌","id":6},{"zip":"0563","name":"广德","id":6},{"zip":"0793","name":"广丰","id":6},{"zip":"0758","name":"广宁","id":6},{"zip":"0546","name":"广饶","id":6},{"zip":"0599","name":"光泽","id":6},{"zip":"0518","name":"灌南","id":6},{"zip":"0635","name":"冠县","id":6},{"zip":"0518","name":"灌云","id":6},{"zip":"0701","name":"贵溪","id":6},{"zip":"0593","name":"古田","id":6},{"zip":"0552","name":"固镇","id":6}]},{"initial":"H","list":[{"zip":"0451","name":"哈尔滨","id":7},{"zip":"0898","name":"海口","id":7,"code":"4601"},{"zip":"0310","name":"邯郸","id":7,"code":"1304"},{"zip":"0571","name":"杭州","id":7,"code":"3301"},{"zip":"0551","name":"合肥","id":7,"code":"3401"},{"zip":"0752","name":"惠州","id":7,"code":"4413"},{"zip":"0970","name":"海北","id":7,"code":"6322"},{"zip":"0972","name":"海东","id":7,"code":"6302"},{"zip":"0974","name":"海南","id":7,"code":"6325"},{"zip":"0977","name":"海西","id":7,"code":"6328"},{"zip":"0902","name":"哈密","id":7,"code":"6505"},{"zip":"0916","name":"汉中","id":7,"code":"6107"},{"zip":"0392","name":"鹤壁","id":7,"code":"4106"},{"zip":"0778","name":"河池","id":7,"code":"4512"},{"zip":"0468","name":"鹤岗","id":7,"code":"2304"},{"zip":"0456","name":"黑河","id":7,"code":"2311"},{"zip":"0318","name":"衡水","id":7,"code":"1311"},{"zip":"0734","name":"衡阳","id":7,"code":"4304"},{"zip":"0903","name":"和田地","id":7},{"zip":"0762","name":"河源","id":7,"code":"4416"},{"zip":"0530","name":"菏泽","id":7,"code":"3717"},{"zip":"0774","name":"贺州","id":7,"code":"4511"},{"zip":"0873","name":"红河","id":7,"code":"5325"},{"zip":"0517","name":"淮安","id":7,"code":"3208"},{"zip":"0561","name":"淮北","id":7,"code":"3406"},{"zip":"0745","name":"怀化","id":7,"code":"4312"},{"zip":"0554","name":"淮南","id":7,"code":"3404"},{"zip":"0713","name":"黄冈","id":7,"code":"4211"},{"zip":"0973","name":"黄南","id":7,"code":"6323"},{"zip":"0559","name":"黄山","id":7,"code":"3410"},{"zip":"0714","name":"黄石","id":7,"code":"4202"},{"zip":"0471","name":"呼和浩特","id":7},{"zip":"0429","name":"葫芦岛","id":7},{"zip":"0470","name":"呼伦贝尔","id":7},{"zip":"0572","name":"湖州","id":7,"code":"3305"},{"zip":"0513","name":"海安","id":7},{"zip":"0660","name":"海丰","id":7},{"zip":"0513","name":"海门","id":7},{"zip":"0573","name":"海宁","id":7},{"zip":"0573","name":"海盐","id":7},{"zip":"0535","name":"海阳","id":7},{"zip":"0565","name":"含山","id":7},{"zip":"023","name":"合川","id":7},{"zip":"0793","name":"横峰","id":7},{"zip":"0771","name":"横县","id":7},{"zip":"0762","name":"和平","id":7},{"zip":"0750","name":"鹤山","id":7},{"zip":"0565","name":"和县","id":7},{"zip":"0517","name":"洪泽","id":7},{"zip":"0596","name":"华安","id":7},{"zip":"0423","name":"桦甸","id":7},{"zip":"0758","name":"怀集","id":7},{"zip":"0556","name":"怀宁","id":7},{"zip":"0552","name":"怀远","id":7},{"zip":"0533","name":"桓台","id":7},{"zip":"0668","name":"化州","id":7},{"zip":"0595","name":"惠安","id":7},{"zip":"0797","name":"会昌","id":7},{"zip":"0752","name":"惠东","id":7},{"zip":"0663","name":"惠来","id":7},{"zip":"0543","name":"惠民","id":7},{"zip":"0792","name":"湖口","id":7},{"zip":"0451","name":"呼兰","id":7},{"zip":"0564","name":"霍邱","id":7},{"zip":"0564","name":"霍山","id":7},{"zip":"029","name":"户县","id":7}]},{"initial":"J","list":[{"zip":"0391","name":"焦作","id":8,"code":"4108"},{"zip":"0573","name":"嘉兴","id":8,"code":"3304"},{"zip":"0423","name":"吉林","id":8,"code":"2201"},{"zip":"0531","name":"济南","id":8,"code":"3701"},{"zip":"0454","name":"佳木斯","id":8},{"zip":"0750","name":"江门","id":8,"code":"4407"},{"zip":"0796","name":"吉安","id":8,"code":"3608"},{"zip":"0937","name":"嘉峪关","id":8},{"zip":"0663","name":"揭阳","id":8,"code":"4452"},{"zip":"0935","name":"金昌","id":8,"code":"6203"},{"zip":"0356","name":"晋城","id":8,"code":"1405"},{"zip":"0798","name":"景德镇","id":8},{"zip":"0724","name":"荆门","id":8,"code":"4208"},{"zip":"0716","name":"荆州","id":8,"code":"4210"},{"zip":"0579","name":"金华","id":8,"code":"3307"},{"zip":"0537","name":"济宁","id":8,"code":"3708"},{"zip":"0354","name":"晋中","id":8,"code":"1407"},{"zip":"0416","name":"锦州","id":8,"code":"2107"},{"zip":"0792","name":"九江","id":8,"code":"3604"},{"zip":"0937","name":"酒泉","id":8,"code":"6209"},{"zip":"0467","name":"鸡西","id":8,"code":"2303"},{"zip":"0571","name":"建德","id":8},{"zip":"0514","name":"江都","id":8},{"zip":"023","name":"江津","id":8},{"zip":"0598","name":"将乐","id":8},{"zip":"0570","name":"江山","id":8},{"zip":"0523","name":"姜堰","id":8},{"zip":"0510","name":"江阴","id":8},{"zip":"0515","name":"建湖","id":8},{"zip":"0598","name":"建宁","id":8},{"zip":"0599","name":"建瓯","id":8},{"zip":"0599","name":"建阳","id":8},{"zip":"0796","name":"吉安","id":8,"code":"3608"},{"zip":"0423","name":"蛟河","id":8},{"zip":"0753","name":"蕉岭","id":8},{"zip":"0532","name":"胶南","id":8},{"zip":"0532","name":"胶州","id":8},{"zip":"0573","name":"嘉善","id":8},{"zip":"0537","name":"嘉祥","id":8},{"zip":"0663","name":"揭东","id":8},{"zip":"0558","name":"界首","id":8},{"zip":"0663","name":"揭西","id":8},{"zip":"0532","name":"即墨","id":8},{"zip":"0795","name":"靖安","id":8},{"zip":"0563","name":"旌德","id":8},{"zip":"0796","name":"井冈山","id":8},{"zip":"0523","name":"靖江","id":8},{"zip":"0578","name":"景宁","id":8},{"zip":"0563","name":"泾县","id":8},{"zip":"0311","name":"井陉","id":8},{"zip":"0517","name":"金湖","id":8},{"zip":"0595","name":"晋江","id":8},{"zip":"0595","name":"金门","id":8},{"zip":"0871","name":"晋宁","id":8},{"zip":"0519","name":"金坛","id":8},{"zip":"028","name":"金堂","id":8},{"zip":"0791","name":"进贤","id":8},{"zip":"0794","name":"金溪","id":8},{"zip":"0537","name":"金乡","id":8},{"zip":"0578","name":"缙云","id":8},{"zip":"0564","name":"金寨","id":8},{"zip":"0311","name":"晋州","id":8},{"zip":"0796","name":"吉水","id":8},{"zip":"0792","name":"九江","id":8,"code":"3604"},{"zip":"0431","name":"九台","id":8},{"zip":"0563","name":"绩溪","id":8},{"zip":"0531","name":"济阳","id":8},{"zip":"0391","name":"济源","id":8},{"zip":"0530","name":"鄄城","id":8},{"zip":"0539","name":"莒南","id":8},{"zip":"0511","name":"句容","id":8},{"zip":"0633","name":"莒县","id":8},{"zip":"0530","name":"巨野","id":8}]},{"initial":"K","list":[{"zip":"0871","name":"昆明","id":9,"code":"5301"},{"zip":"0378","name":"开封","id":9,"code":"4102"},{"zip":"0998","name":"喀什地","id":9},{"zip":"0990","name":"克拉玛依","id":9},{"zip":"0908","name":"克孜勒","id":9},{"zip":"0570","name":"开化","id":9},{"zip":"0750","name":"开平","id":9},{"zip":"023","name":"开县","id":9},{"zip":"0851","name":"开阳","id":9},{"zip":"024","name":"康平","id":9},{"zip":"0546","name":"垦利","id":9},{"zip":"0512","name":"昆山","id":9}]},{"initial":"L","list":[{"zip":"0931","name":"兰州","id":10,"code":"6201"},{"zip":"0772","name":"柳州","id":10,"code":"4502"},{"zip":"0379","name":"洛阳","id":10,"code":"4103"},{"zip":"0772","name":"来宾","id":10,"code":"4513"},{"zip":"0634","name":"莱芜","id":10,"code":"3712"},{"zip":"0316","name":"廊坊","id":10,"code":"1310"},{"zip":"0891","name":"拉萨","id":10,"code":"5401"},{"zip":"0833","name":"乐山","id":10,"code":"5111"},{"zip":"0834","name":"凉山","id":10,"code":"5134"},{"zip":"0518","name":"连云港","id":10},{"zip":"0635","name":"聊城","id":10,"code":"3715"},{"zip":"0419","name":"辽阳","id":10,"code":"2110"},{"zip":"0437","name":"辽源","id":10,"code":"2204"},{"zip":"0888","name":"丽江","id":10,"code":"5307"},{"zip":"0883","name":"临沧","id":10,"code":"5309"},{"zip":"0357","name":"临汾","id":10,"code":"1410"},{"zip":"0930","name":"临夏","id":10,"code":"6229"},{"zip":"0539","name":"临沂","id":10,"code":"3713"},{"zip":"0894","name":"林芝","id":10,"code":"5404"},{"zip":"0578","name":"丽水","id":10,"code":"3311"},{"zip":"0564","name":"六安","id":10,"code":"3415"},{"zip":"0858","name":"六盘水","id":10},{"zip":"0939","name":"陇南","id":10,"code":"6212"},{"zip":"0597","name":"龙岩","id":10,"code":"3508"},{"zip":"0738","name":"娄底","id":10,"code":"4313"},{"zip":"0395","name":"漯河","id":10,"code":"4111"},{"zip":"0830","name":"泸州","id":10,"code":"5105"},{"zip":"0358","name":"吕梁","id":10,"code":"1411"},{"zip":"0550","name":"来安","id":10},{"zip":"0532","name":"莱西","id":10},{"zip":"0535","name":"莱阳","id":10},{"zip":"0535","name":"莱州","id":10},{"zip":"0563","name":"郎溪","id":10},{"zip":"029","name":"蓝田","id":10},{"zip":"0579","name":"兰溪","id":10},{"zip":"0794","name":"乐安","id":10},{"zip":"0751","name":"乐昌","id":10},{"zip":"0759","name":"雷州","id":10},{"zip":"0534","name":"乐陵","id":10},{"zip":"0798","name":"乐平","id":10},{"zip":"0577","name":"乐清","id":10},{"zip":"0315","name":"乐亭","id":10},{"zip":"0597","name":"连城","id":10},{"zip":"023","name":"梁平","id":10},{"zip":"0537","name":"梁山","id":10},{"zip":"0799","name":"莲花","id":10},{"zip":"0591","name":"连江","id":10},{"zip":"0759","name":"廉江","id":10},{"zip":"0763","name":"连南","id":10},{"zip":"0762","name":"连平","id":10},{"zip":"0763","name":"连山","id":10},{"zip":"0517","name":"涟水","id":10},{"zip":"0763","name":"连州","id":10},{"zip":"024","name":"辽中","id":10},{"zip":"0794","name":"黎川","id":10},{"zip":"0546","name":"利津","id":10},{"zip":"0571","name":"临安","id":10},{"zip":"0557","name":"灵璧","id":10},{"zip":"0311","name":"灵寿","id":10},{"zip":"0534","name":"陵县","id":10},{"zip":"0576","name":"临海","id":10},{"zip":"0635","name":"临清","id":10},{"zip":"0558","name":"临泉","id":10},{"zip":"0536","name":"临朐","id":10},{"zip":"0539","name":"临沭","id":10},{"zip":"0534","name":"临邑","id":10},{"zip":"025","name":"溧水","id":10},{"zip":"0772","name":"柳城","id":10},{"zip":"0772","name":"柳江","id":10},{"zip":"0731","name":"浏阳","id":10},{"zip":"0558","name":"利辛","id":10},{"zip":"0519","name":"溧阳","id":10},{"zip":"0771","name":"隆安","id":10},{"zip":"0762","name":"龙川","id":10},{"zip":"0596","name":"龙海","id":10},{"zip":"0535","name":"龙口","id":10},{"zip":"0752","name":"龙门","id":10},{"zip":"0797","name":"龙南","id":10},{"zip":"0578","name":"龙泉","id":10},{"zip":"0570","name":"龙游","id":10},{"zip":"0311","name":"栾城","id":10},{"zip":"0379","name":"栾川","id":10},{"zip":"0315","name":"滦南","id":10},{"zip":"0315","name":"滦县","id":10},{"zip":"0660","name":"陆丰","id":10},{"zip":"0660","name":"陆河","id":10},{"zip":"0565","name":"庐江","id":10},{"zip":"0766","name":"罗定","id":10},{"zip":"0379","name":"洛宁","id":10},{"zip":"0591","name":"罗源","id":10},{"zip":"0311","name":"鹿泉","id":10},{"zip":"0871","name":"禄劝","id":10},{"zip":"0799","name":"芦溪","id":10},{"zip":"0772","name":"鹿寨","id":10}]},{"initial":"M","list":[{"zip":"0555","name":"马鞍山","id":11},{"zip":"0668","name":"茂名","id":11,"code":"4409"},{"zip":"028","name":"眉山","id":11,"code":"5114"},{"zip":"0753","name":"梅州","id":11,"code":"4414"},{"zip":"0816","name":"绵阳","id":11,"code":"5107"},{"zip":"0453","name":"牡丹江","id":11},{"zip":"0771","name":"马山","id":11},{"zip":"0753","name":"梅县","id":11},{"zip":"0558","name":"蒙城","id":11},{"zip":"0379","name":"孟津","id":11},{"zip":"0539","name":"蒙阴","id":11},{"zip":"0391","name":"孟州","id":11},{"zip":"0550","name":"明光","id":11},{"zip":"0598","name":"明溪","id":11},{"zip":"0591","name":"闽侯","id":11},{"zip":"0591","name":"闽清","id":11},{"zip":"0451","name":"木兰","id":11}]},{"initial":"N","list":[{"zip":"0791","name":"南昌","id":12,"code":"3601"},{"zip":"025","name":"南京","id":12,"code":"3201"},{"zip":"0771","name":"南宁","id":12,"code":"4501"},{"zip":"0513","name":"南通","id":12,"code":"3206"},{"zip":"0574","name":"宁波","id":12,"code":"3302"},{"zip":"0817","name":"南充","id":12,"code":"5113"},{"zip":"0599","name":"南平","id":12,"code":"3507"},{"zip":"0377","name":"南阳","id":12,"code":"4113"},{"zip":"0896","name":"那曲","id":12,"code":"5424"},{"zip":"0832","name":"内江","id":12,"code":"5110"},{"zip":"0593","name":"宁德","id":12,"code":"3509"},{"zip":"0886","name":"怒江","id":12,"code":"5333"},{"zip":"0595","name":"南安","id":12},{"zip":"0754","name":"南澳","id":12},{"zip":"0794","name":"南城","id":12},{"zip":"023","name":"南川","id":12},{"zip":"0794","name":"南丰","id":12},{"zip":"0596","name":"南靖","id":12},{"zip":"0797","name":"南康","id":12},{"zip":"0553","name":"南陵","id":12},{"zip":"0751","name":"南雄","id":12},{"zip":"0797","name":"宁都","id":12},{"zip":"0563","name":"宁国","id":12},{"zip":"0574","name":"宁海","id":12},{"zip":"0598","name":"宁化","id":12},{"zip":"0534","name":"宁津","id":12},{"zip":"0731","name":"宁乡","id":12},{"zip":"0538","name":"宁阳","id":12},{"zip":"0431","name":"农安","id":12}]},{"initial":"P","list":[{"zip":"0427","name":"盘锦","id":13,"code":"2111"},{"zip":"0812","name":"攀枝花","id":13},{"zip":"0375","name":"平顶山","id":13},{"zip":"0933","name":"平凉","id":13,"code":"6208"},{"zip":"0799","name":"萍乡","id":13,"code":"3603"},{"zip":"0879","name":"普洱","id":13,"code":"5308"},{"zip":"0594","name":"莆田","id":13,"code":"3503"},{"zip":"0393","name":"濮阳","id":13,"code":"4109"},{"zip":"0579","name":"磐安","id":13},{"zip":"0423","name":"磐石","id":13},{"zip":"0516","name":"沛县","id":13},{"zip":"0535","name":"蓬莱","id":13},{"zip":"023","name":"彭水","id":13},{"zip":"0792","name":"彭泽","id":13},{"zip":"028","name":"彭州","id":13},{"zip":"0532","name":"平度","id":13},{"zip":"0596","name":"平和","id":13},{"zip":"0573","name":"平湖","id":13},{"zip":"0593","name":"屏南","id":13},{"zip":"0311","name":"平山","id":13},{"zip":"0591","name":"平潭","id":13},{"zip":"0577","name":"平阳","id":13},{"zip":"0531","name":"平阴","id":13},{"zip":"0539","name":"平邑","id":13},{"zip":"0534","name":"平原","id":13},{"zip":"0753","name":"平远","id":13},{"zip":"028","name":"郫县","id":13},{"zip":"0516","name":"邳州","id":13},{"zip":"0793","name":"鄱阳","id":13},{"zip":"0599","name":"浦城","id":13},{"zip":"0579","name":"浦江","id":13},{"zip":"028","name":"蒲江","id":13},{"zip":"0411","name":"普兰店","id":13},{"zip":"0663","name":"普宁","id":13}]},{"initial":"Q","list":[{"zip":"0532","name":"青岛","id":14,"code":"3702"},{"zip":"0595","name":"泉州","id":14,"code":"3505"},{"zip":"0855","name":"黔东","id":14,"code":"5226"},{"zip":"0854","name":"黔南","id":14,"code":"5227"},{"zip":"0859","name":"黔西南","id":14},{"zip":"0934","name":"庆阳","id":14,"code":"6210"},{"zip":"0763","name":"清远","id":14,"code":"4418"},{"zip":"0335","name":"秦皇岛","id":14},{"zip":"0777","name":"钦州","id":14,"code":"4507"},{"zip":"0452","name":"齐齐哈尔","id":14},{"zip":"0464","name":"七台河","id":14},{"zip":"0874","name":"曲靖","id":14,"code":"5303"},{"zip":"0570","name":"衢州","id":14,"code":"3308"},{"zip":"0315","name":"迁安","id":14},{"zip":"0556","name":"潜山","id":14},{"zip":"0793","name":"铅山","id":14},{"zip":"0315","name":"迁西","id":14},{"zip":"0513","name":"启东","id":14},{"zip":"0534","name":"齐河","id":14},{"zip":"023","name":"綦江","id":14},{"zip":"0559","name":"祁门","id":14},{"zip":"0598","name":"清流","id":14},{"zip":"0578","name":"青田","id":14},{"zip":"0763","name":"清新","id":14},{"zip":"0566","name":"青阳","id":14},{"zip":"0578","name":"庆元","id":14},{"zip":"0534","name":"庆云","id":14},{"zip":"0851","name":"清镇","id":14},{"zip":"0536","name":"青州","id":14},{"zip":"0391","name":"沁阳","id":14},{"zip":"028","name":"邛崃","id":14},{"zip":"0535","name":"栖霞","id":14},{"zip":"0550","name":"全椒","id":14},{"zip":"0797","name":"全南","id":14},{"zip":"0537","name":"曲阜","id":14},{"zip":"0751","name":"曲江","id":14}]},{"initial":"R","list":[{"zip":"0892","name":"日喀则","id":15},{"zip":"0633","name":"日照","id":15,"code":"3711"},{"zip":"0768","name":"饶平","id":15},{"zip":"0751","name":"仁化","id":15},{"zip":"0772","name":"融安","id":15},{"zip":"023","name":"荣昌","id":15},{"zip":"0631","name":"荣成","id":15},{"zip":"0772","name":"融水","id":15},{"zip":"0513","name":"如东","id":15},{"zip":"0513","name":"如皋","id":15},{"zip":"0577","name":"瑞安","id":15},{"zip":"0792","name":"瑞昌","id":15},{"zip":"0797","name":"瑞金","id":15},{"zip":"0631","name":"乳山","id":15},{"zip":"0379","name":"汝阳","id":15},{"zip":"0751","name":"乳源","id":15}]},{"initial":"S","list":[{"zip":"021","name":"上海","id":16,"code":"3101"},{"zip":"024","name":"沈阳","id":16,"code":"2101"},{"zip":"0755","name":"深圳","id":16,"code":"4403"},{"zip":"0311","name":"石家庄","id":16},{"zip":"0512","name":"苏州","id":16,"code":"3205"},{"zip":"0398","name":"三门峡","id":16},{"zip":"0598","name":"三明","id":16,"code":"3504"},{"zip":"0899","name":"三亚","id":16,"code":"4602"},{"zip":"0914","name":"商洛","id":16,"code":"6110"},{"zip":"0370","name":"商丘","id":16,"code":"4114"},{"zip":"0793","name":"上饶","id":16,"code":"3611"},{"zip":"0893","name":"山南","id":16,"code":"5405"},{"zip":"0754","name":"汕头","id":16,"code":"4405"},{"zip":"0660","name":"汕尾","id":16,"code":"4415"},{"zip":"0751","name":"韶关","id":16,"code":"4402"},{"zip":"0575","name":"绍兴","id":16,"code":"3306"},{"zip":"0739","name":"邵阳","id":16,"code":"4305"},{"zip":"0719","name":"十堰","id":16,"code":"4203"},{"zip":"0952","name":"石嘴山","id":16},{"zip":"0469","name":"双鸭山","id":16},{"zip":"0349","name":"朔州","id":16,"code":"1406"},{"zip":"0434","name":"四平","id":16,"code":"2203"},{"zip":"0438","name":"松原","id":16,"code":"2207"},{"zip":"0455","name":"绥化","id":16,"code":"2312"},{"zip":"0825","name":"遂宁","id":16,"code":"5109"},{"zip":"0722","name":"随州","id":16,"code":"4213"},{"zip":"0527","name":"宿迁","id":16,"code":"3213"},{"zip":"0557","name":"宿州","id":16,"code":"3413"},{"zip":"0772","name":"三江","id":16},{"zip":"0576","name":"三门","id":16,"code":"4112"},{"zip":"0596","name":"诏安","id":16},{"zip":"0795","name":"上高","id":16},{"zip":"0597","name":"上杭","id":16},{"zip":"0531","name":"商河","id":16},{"zip":"0799","name":"上栗","id":16},{"zip":"0771","name":"上林","id":16},{"zip":"0793","name":"上饶","id":16,"code":"3611"},{"zip":"0797","name":"上犹","id":16},{"zip":"0575","name":"上虞","id":16},{"zip":"0451","name":"尚志","id":16},{"zip":"0599","name":"邵武","id":16},{"zip":"0575","name":"绍兴","id":16,"code":"3306"},{"zip":"0598","name":"沙县","id":16},{"zip":"0580","name":"嵊泗","id":16},{"zip":"0575","name":"嵊州","id":16},{"zip":"0635","name":"莘县","id":16},{"zip":"0311","name":"深泽","id":16},{"zip":"0559","name":"歙县","id":16},{"zip":"0515","name":"射阳","id":16},{"zip":"0797","name":"石城","id":16},{"zip":"0871","name":"石林","id":16},{"zip":"0595","name":"石狮","id":16},{"zip":"0566","name":"石台","id":16},{"zip":"0751","name":"始兴","id":16},{"zip":"023","name":"石柱","id":16},{"zip":"0536","name":"寿光","id":16},{"zip":"0593","name":"寿宁","id":16},{"zip":"0564","name":"寿县","id":16},{"zip":"0451","name":"双城","id":16},{"zip":"028","name":"双流","id":16},{"zip":"0564","name":"舒城","id":16},{"zip":"0423","name":"舒兰","id":16},{"zip":"0599","name":"顺昌","id":16},{"zip":"0527","name":"沭阳","id":16},{"zip":"0527","name":"泗洪","id":16},{"zip":"0758","name":"四会","id":16},{"zip":"0537","name":"泗水","id":16},{"zip":"0557","name":"泗县","id":16},{"zip":"0527","name":"泗阳","id":16},{"zip":"0871","name":"嵩明","id":16},{"zip":"0599","name":"松溪","id":16},{"zip":"0379","name":"嵩县","id":16},{"zip":"0578","name":"松阳","id":16},{"zip":"0578","name":"遂昌","id":16},{"zip":"0796","name":"遂川","id":16},{"zip":"0516","name":"睢宁","id":16},{"zip":"0561","name":"濉溪","id":16},{"zip":"0759","name":"遂溪","id":16},{"zip":"0556","name":"宿松","id":16},{"zip":"0527","name":"宿豫","id":16}]},{"initial":"T","list":[{"zip":"022","name":"天津","id":17,"code":"1201"},{"zip":"0576","name":"台州","id":17,"code":"3310"},{"zip":"0315","name":"唐山","id":17,"code":"1302"},{"zip":"0901","name":"塔城地","id":17},{"zip":"0538","name":"泰安","id":17,"code":"3709"},{"zip":"0351","name":"太原","id":17,"code":"1401"},{"zip":"0523","name":"泰州","id":17,"code":"3212"},{"zip":"0938","name":"天水","id":17,"code":"6205"},{"zip":"0410","name":"铁岭","id":17,"code":"2112"},{"zip":"0919","name":"铜川","id":17,"code":"6102"},{"zip":"0435","name":"通化","id":17,"code":"2205"},{"zip":"0475","name":"通辽","id":17,"code":"1505"},{"zip":"0562","name":"铜陵","id":17,"code":"3407"},{"zip":"0856","name":"铜仁","id":17,"code":"5206"},{"zip":"0995","name":"吐鲁番","id":17},{"zip":"0512","name":"太仓","id":17},{"zip":"0558","name":"太和","id":17},{"zip":"0796","name":"泰和","id":17},{"zip":"0556","name":"太湖","id":17},{"zip":"0598","name":"泰宁","id":17},{"zip":"0750","name":"台山","id":17},{"zip":"0577","name":"泰顺","id":17},{"zip":"0523","name":"泰兴","id":17},{"zip":"0539","name":"郯城","id":17},{"zip":"0315","name":"唐海","id":17},{"zip":"0623","name":"滕州","id":17},{"zip":"0550","name":"天长","id":17},{"zip":"0576","name":"天台","id":17},{"zip":"0556","name":"桐城","id":17},{"zip":"0795","name":"铜鼓","id":17},{"zip":"0451","name":"通河","id":17},{"zip":"023","name":"铜梁","id":17},{"zip":"0562","name":"铜陵","id":17,"code":"3407"},{"zip":"0571","name":"桐庐","id":17},{"zip":"023","name":"潼南","id":17},{"zip":"0516","name":"铜山","id":17},{"zip":"0573","name":"桐乡","id":17},{"zip":"0513","name":"通州","id":17}]},{"initial":"V","list":[]},{"initial":"W","list":[{"zip":"0536","name":"潍坊","id":19,"code":"3707"},{"zip":"0631","name":"威海","id":19,"code":"3710"},{"zip":"027","name":"武汉","id":19,"code":"4201"},{"zip":"0510","name":"无锡","id":19,"code":"3202"},{"zip":"0913","name":"渭南","id":19,"code":"6105"},{"zip":"0876","name":"文山","id":19,"code":"5326"},{"zip":"0577","name":"温州","id":19,"code":"3303"},{"zip":"0473","name":"乌海","id":19,"code":"1503"},{"zip":"0553","name":"芜湖","id":19,"code":"3402"},{"zip":"0474","name":"乌兰察布","id":19},{"zip":"0991","name":"乌鲁木齐","id":19},{"zip":"0935","name":"武威","id":19,"code":"6206"},{"zip":"0953","name":"吴忠","id":19,"code":"6403"},{"zip":"0774","name":"梧州","id":19,"code":"4504"},{"zip":"0411","name":"瓦房店","id":19},{"zip":"0796","name":"万安","id":19},{"zip":"0731","name":"望城","id":19},{"zip":"0556","name":"望江","id":19},{"zip":"0793","name":"万年","id":19},{"zip":"0795","name":"万载","id":19},{"zip":"0537","name":"微山","id":19},{"zip":"0577","name":"文成","id":19},{"zip":"0631","name":"文登","id":19},{"zip":"0751","name":"翁源","id":19},{"zip":"0576","name":"温岭","id":19},{"zip":"0537","name":"汶上","id":19},{"zip":"0391","name":"温县","id":19},{"zip":"0558","name":"涡阳","id":19},{"zip":"0451","name":"五常","id":19},{"zip":"0534","name":"武城","id":19},{"zip":"0759","name":"吴川","id":19},{"zip":"0543","name":"无棣","id":19},{"zip":"0552","name":"五河","id":19},{"zip":"0553","name":"芜湖","id":19,"code":"3402"},{"zip":"0753","name":"五华","id":19},{"zip":"0311","name":"无极","id":19},{"zip":"0512","name":"吴江","id":19},{"zip":"0633","name":"五莲","id":19},{"zip":"023","name":"武隆","id":19},{"zip":"0771","name":"武鸣","id":19},{"zip":"0792","name":"武宁","id":19},{"zip":"0597","name":"武平","id":19},{"zip":"023","name":"巫山","id":19},{"zip":"0565","name":"无为","id":19},{"zip":"023","name":"巫溪","id":19},{"zip":"0579","name":"武义","id":19},{"zip":"0599","name":"武夷山","id":19},{"zip":"0793","name":"婺源","id":19},{"zip":"0391","name":"武陟","id":19}]},{"initial":"X","list":[{"zip":"0592","name":"厦门","id":20,"code":"3502"},{"zip":"029","name":"西安","id":20,"code":"6101"},{"zip":"0374","name":"许昌","id":20,"code":"4110"},{"zip":"0516","name":"徐州","id":20,"code":"3203"},{"zip":"0710","name":"襄樊","id":20},{"zip":"0732","name":"湘潭","id":20,"code":"4303"},{"zip":"0743","name":"湘西","id":20,"code":"4331"},{"zip":"0715","name":"咸宁","id":20,"code":"4212"},{"zip":"029","name":"咸阳","id":20,"code":"6104"},{"zip":"0712","name":"孝感","id":20,"code":"4209"},{"zip":"0479","name":"锡林郭勒盟","id":20},{"zip":"0482","name":"兴安盟","id":20},{"zip":"0319","name":"邢台","id":20,"code":"1305"},{"zip":"0971","name":"西宁","id":20,"code":"6301"},{"zip":"0373","name":"新乡","id":20,"code":"4107"},{"zip":"0376","name":"信阳","id":20,"code":"4115"},{"zip":"0790","name":"新余","id":20,"code":"3605"},{"zip":"0350","name":"忻州","id":20,"code":"1409"},{"zip":"0691","name":"西双版纳","id":20},{"zip":"0563","name":"宣城","id":20,"code":"3418"},{"zip":"0796","name":"峡江","id":20},{"zip":"0534","name":"夏津","id":20},{"zip":"0574","name":"象山","id":20},{"zip":"0515","name":"响水","id":20},{"zip":"0576","name":"仙居","id":20},{"zip":"0594","name":"仙游","id":20},{"zip":"0557","name":"萧县","id":20},{"zip":"0593","name":"霞浦","id":20},{"zip":"0851","name":"息烽","id":20},{"zip":"0379","name":"新安","id":20},{"zip":"0575","name":"新昌","id":20},{"zip":"0797","name":"信丰","id":20},{"zip":"0751","name":"新丰","id":20},{"zip":"0796","name":"新干","id":20},{"zip":"0797","name":"兴国","id":20},{"zip":"0523","name":"兴化","id":20},{"zip":"0753","name":"兴宁","id":20},{"zip":"0311","name":"行唐","id":20},{"zip":"0371","name":"荥阳","id":20},{"zip":"0792","name":"星子","id":20},{"zip":"0311","name":"辛集","id":20},{"zip":"0791","name":"新建","id":20},{"zip":"028","name":"新津","id":20},{"zip":"0311","name":"新乐","id":20},{"zip":"024","name":"新民","id":20},{"zip":"0371","name":"新密","id":20},{"zip":"0538","name":"新泰","id":20},{"zip":"0766","name":"新兴","id":20},{"zip":"0516","name":"新沂","id":20},{"zip":"0668","name":"信宜","id":20},{"zip":"0371","name":"新郑","id":20},{"zip":"0559","name":"休宁","id":20},{"zip":"023","name":"秀山","id":20},{"zip":"0792","name":"修水","id":20},{"zip":"0851","name":"修文","id":20},{"zip":"0391","name":"修武","id":20},{"zip":"0871","name":"寻甸","id":20},{"zip":"0797","name":"寻乌","id":20},{"zip":"0759","name":"徐闻","id":20},{"zip":"0517","name":"盱眙","id":20}]},{"initial":"Y","list":[{"zip":"0514","name":"扬州","id":21,"code":"3210"},{"zip":"0535","name":"烟台","id":21,"code":"3706"},{"zip":"0835","name":"雅安","id":21,"code":"5118"},{"zip":"0911","name":"延安","id":21,"code":"6106"},{"zip":"0433","name":"延边","id":21,"code":"2224"},{"zip":"0515","name":"盐城","id":21,"code":"3209"},{"zip":"0662","name":"阳江","id":21,"code":"4417"},{"zip":"0353","name":"阳泉","id":21,"code":"1403"},{"zip":"0831","name":"宜宾","id":21,"code":"5115"},{"zip":"0717","name":"宜昌","id":21,"code":"4205"},{"zip":"0458","name":"伊春","id":21,"code":"2307"},{"zip":"0795","name":"宜春","id":21,"code":"3609"},{"zip":"0999","name":"伊犁哈萨克","id":21},{"zip":"0951","name":"银川","id":21,"code":"6401"},{"zip":"0417","name":"营口","id":21,"code":"2108"},{"zip":"0701","name":"鹰潭","id":21,"code":"3606"},{"zip":"0737","name":"益阳","id":21,"code":"4309"},{"zip":"0746","name":"永州","id":21,"code":"4311"},{"zip":"0730","name":"岳阳","id":21,"code":"4306"},{"zip":"0775","name":"玉林","id":21,"code":"4509"},{"zip":"0912","name":"榆林","id":21,"code":"6108"},{"zip":"0359","name":"运城","id":21,"code":"1408"},{"zip":"0766","name":"云浮","id":21,"code":"4453"},{"zip":"0976","name":"玉树","id":21,"code":"6327"},{"zip":"0877","name":"玉溪","id":21,"code":"5304"},{"zip":"0662","name":"阳春","id":21},{"zip":"0662","name":"阳东","id":21},{"zip":"0635","name":"阳谷","id":21},{"zip":"0763","name":"阳山","id":21},{"zip":"0543","name":"阳信","id":21},{"zip":"0662","name":"阳西","id":21},{"zip":"0511","name":"扬中","id":21},{"zip":"0379","name":"偃师","id":21},{"zip":"0451","name":"延寿","id":21},{"zip":"0537","name":"兖州","id":21},{"zip":"0379","name":"伊川","id":21},{"zip":"0795","name":"宜丰","id":21},{"zip":"0794","name":"宜黄","id":21},{"zip":"0451","name":"依兰","id":21},{"zip":"0871","name":"宜良","id":21},{"zip":"0539","name":"沂南","id":21},{"zip":"0763","name":"英德","id":21},{"zip":"0558","name":"颍上","id":21},{"zip":"0539","name":"沂水","id":21},{"zip":"0579","name":"义乌","id":21},{"zip":"0559","name":"黟县","id":21},{"zip":"0510","name":"宜兴","id":21},{"zip":"0793","name":"弋阳","id":21},{"zip":"0379","name":"宜阳","id":21},{"zip":"0533","name":"沂源","id":21},{"zip":"0514","name":"仪征","id":21},{"zip":"0598","name":"永安","id":21},{"zip":"023","name":"永川","id":21},{"zip":"0595","name":"永春","id":21},{"zip":"0931","name":"永登","id":21},{"zip":"0597","name":"永定","id":21},{"zip":"0796","name":"永丰","id":21},{"zip":"0423","name":"永吉","id":21},{"zip":"0577","name":"永嘉","id":21},{"zip":"0579","name":"永康","id":21},{"zip":"0771","name":"邕宁","id":21},{"zip":"0591","name":"永泰","id":21},{"zip":"0796","name":"永新","id":21},{"zip":"0792","name":"永修","id":21},{"zip":"0598","name":"尤溪","id":21},{"zip":"023","name":"酉阳","id":21},{"zip":"0311","name":"元氏","id":21},{"zip":"0534","name":"禹城","id":21},{"zip":"0797","name":"于都","id":21},{"zip":"0556","name":"岳西","id":21},{"zip":"0793","name":"余干","id":21},{"zip":"0576","name":"玉环","id":21},{"zip":"0701","name":"余江","id":21},{"zip":"0766","name":"郁南","id":21},{"zip":"0766","name":"云安","id":21},{"zip":"0530","name":"郓城","id":21},{"zip":"0578","name":"云和","id":21},{"zip":"0596","name":"云霄","id":21},{"zip":"023","name":"云阳","id":21},{"zip":"0793","name":"玉山","id":21},{"zip":"0431","name":"榆树","id":21},{"zip":"0537","name":"鱼台","id":21},{"zip":"0315","name":"玉田","id":21},{"zip":"0574","name":"余姚","id":21},{"zip":"0931","name":"榆中","id":21}]},{"initial":"Z","list":[{"zip":"0596","name":"漳州","id":22,"code":"3506"},{"zip":"0371","name":"郑州","id":22,"code":"4101"},{"zip":"0760","name":"中山","id":22,"code":"4420"},{"zip":"0756","name":"珠海","id":22,"code":"4404"},{"zip":"0623","name":"枣庄","id":22,"code":"3704"},{"zip":"0744","name":"张家界","id":22},{"zip":"0313","name":"张家口","id":22},{"zip":"0936","name":"张掖","id":22,"code":"6207"},{"zip":"0759","name":"湛江","id":22,"code":"4408"},{"zip":"0758","name":"肇庆","id":22,"code":"4412"},{"zip":"0870","name":"昭通","id":22,"code":"5306"},{"zip":"0511","name":"镇江","id":22,"code":"3211"},{"zip":"0955","name":"中卫","id":22,"code":"6405"},{"zip":"0394","name":"周口","id":22,"code":"4116"},{"zip":"0580","name":"舟山","id":22,"code":"3309"},{"zip":"0396","name":"驻马店","id":22},{"zip":"0731","name":"株洲","id":22,"code":"4302"},{"zip":"0533","name":"淄博","id":22,"code":"3703"},{"zip":"0813","name":"自贡","id":22,"code":"5103"},{"zip":"028","name":"资阳","id":22,"code":"5120"},{"zip":"0852","name":"遵义","id":22,"code":"5203"},{"zip":"0311","name":"赞皇","id":22},{"zip":"020","name":"增城","id":22},{"zip":"0512","name":"张家港","id":22},{"zip":"0597","name":"漳平","id":22},{"zip":"0596","name":"漳浦","id":22},{"zip":"0531","name":"章丘","id":22},{"zip":"0795","name":"樟树","id":22},{"zip":"0543","name":"沾化","id":22},{"zip":"0311","name":"赵县","id":22},{"zip":"0535","name":"招远","id":22},{"zip":"0311","name":"正定","id":22},{"zip":"0599","name":"政和","id":22},{"zip":"0593","name":"柘荣","id":22},{"zip":"0371","name":"中牟","id":22},{"zip":"023","name":"忠县","id":22},{"zip":"0593","name":"周宁","id":22},{"zip":"029","name":"周至","id":22},{"zip":"0411","name":"庄河","id":22},{"zip":"0536","name":"诸城","id":22},{"zip":"0575","name":"诸暨","id":22},{"zip":"0762","name":"紫金","id":22},{"zip":"0794","name":"资溪","id":22},{"zip":"0537","name":"邹城","id":22},{"zip":"0543","name":"邹平","id":22},{"zip":"0315","name":"遵化","id":22}]}]